{
  "type": "FeatureCollection",
  "features": [
    {
      "type": "Feature",
      "properties": {
        "norad_id": 66871,
        "name": "STARLINK-36095",
        "group": "last-30-days",
        "lat": 31.32309796222622,
        "lon": 125.25559076857634,
        "alt_km": 340.00772156304083,
        "timestamp": "2025-12-18T21:31:49.700394+00:00",
        "meta_object_name": "STARLINK-36095",
        "meta_object_id": "2025-281Z",
        "meta_epoch": "2025-12-18T06:00:02.999808",
        "meta_mean_motion": 15.75038459,
        "meta_eccentricity": 0.00014323,
        "meta_inclination": 43.0006,
        "meta_ra_of_asc_node": 88.4092,
        "meta_arg_of_pericenter": 273.9872,
        "meta_mean_anomaly": 62.227,
        "meta_ephemeris_type": 0,
        "meta_classification_type": "U",
        "meta_norad_cat_id": 66871,
        "meta_element_set_no": 999,
        "meta_rev_at_epoch": 231,
        "meta_bstar": 0.00025728756,
        "meta_mean_motion_dot": 0.00039226,
        "meta_mean_motion_ddot": 0,
        "tle_line1": "1 66871U 25281Z   25352.25003472  .00039226  00000+0  25729-3 0  9995",
        "tle_line2": "2 66871  43.0006  88.4092 0001432 273.9872  62.2270 15.75038459  2314"
      },
      "geometry": {
        "type": "Point",
        "coordinates": [
          125.25559076857634,
          31.32309796222622
        ]
      }
    },
    {
      "type": "Feature",
      "properties": {
        "norad_id": 66872,
        "name": "STARLINK-36082",
        "group": "last-30-days",
        "lat": 32.237408605714826,
        "lon": 127.06887406366512,
        "alt_km": 340.3587582531418,
        "timestamp": "2025-12-18T21:31:49.700405+00:00",
        "meta_object_name": "STARLINK-36082",
        "meta_object_id": "2025-281AA",
        "meta_epoch": "2025-12-18T06:00:02.999808",
        "meta_mean_motion": 15.75083318,
        "meta_eccentricity": 0.00014091,
        "meta_inclination": 43.0007,
        "meta_ra_of_asc_node": 88.4042,
        "meta_arg_of_pericenter": 266.8292,
        "meta_mean_anomaly": 71.2888,
        "meta_ephemeris_type": 0,
        "meta_classification_type": "U",
        "meta_norad_cat_id": 66872,
        "meta_element_set_no": 999,
        "meta_rev_at_epoch": 218,
        "meta_bstar": -0.00066197717,
        "meta_mean_motion_dot": -0.00101147,
        "meta_mean_motion_ddot": 0,
        "tle_line1": "1 66872U 25281AA  25352.25003472 -.00101147  00000+0 -66198-3 0  9995",
        "tle_line2": "2 66872  43.0007  88.4042 0001409 266.8292  71.2888 15.75083318  2186"
      },
      "geometry": {
        "type": "Point",
        "coordinates": [
          127.06887406366512,
          32.237408605714826
        ]
      }
    },
    {
      "type": "Feature",
      "properties": {
        "norad_id": 66873,
        "name": "STARLINK-36128",
        "group": "last-30-days",
        "lat": 35.00254477440812,
        "lon": 133.18181673862892,
        "alt_km": 340.1713927788869,
        "timestamp": "2025-12-18T21:31:49.700415+00:00",
        "meta_object_name": "STARLINK-36128",
        "meta_object_id": "2025-281AB",
        "meta_epoch": "2025-12-18T06:00:02.999808",
        "meta_mean_motion": 15.75082565,
        "meta_eccentricity": 0.000184,
        "meta_inclination": 43.0006,
        "meta_ra_of_asc_node": 88.3893,
        "meta_arg_of_pericenter": 258.2876,
        "meta_mean_anomaly": 85.575,
        "meta_ephemeris_type": 0,
        "meta_classification_type": "U",
        "meta_norad_cat_id": 66873,
        "meta_element_set_no": 999,
        "meta_rev_at_epoch": 231,
        "meta_bstar": -0.00042941904,
        "meta_mean_motion_dot": -0.00066054,
        "meta_mean_motion_ddot": 0,
        "tle_line1": "1 66873U 25281AB  25352.25003472 -.00066054  00000+0 -42942-3 0  9994",
        "tle_line2": "2 66873  43.0006  88.3893 0001840 258.2876  85.5750 15.75082565  2315"
      },
      "geometry": {
        "type": "Point",
        "coordinates": [
          133.18181673862892,
          35.00254477440812
        ]
      }
    },
    {
      "type": "Feature",
      "properties": {
        "norad_id": 66874,
        "name": "STARLINK-36129",
        "group": "last-30-days",
        "lat": 33.20999537505125,
        "lon": 129.10084373284798,
        "alt_km": 340.3566284029348,
        "timestamp": "2025-12-18T21:31:49.700425+00:00",
        "meta_object_name": "STARLINK-36129",
        "meta_object_id": "2025-281AC",
        "meta_epoch": "2025-12-18T06:00:02.999808",
        "meta_mean_motion": 15.75071001,
        "meta_eccentricity": 0.00018279,
        "meta_inclination": 43.0007,
        "meta_ra_of_asc_node": 88.3994,
        "meta_arg_of_pericenter": 262.4329,
        "meta_mean_anomaly": 77.6096,
        "meta_ephemeris_type": 0,
        "meta_classification_type": "U",
        "meta_norad_cat_id": 66874,
        "meta_element_set_no": 999,
        "meta_rev_at_epoch": 231,
        "meta_bstar": -0.00035508264,
        "meta_mean_motion_dot": -0.00054747,
        "meta_mean_motion_ddot": 0,
        "tle_line1": "1 66874U 25281AC  25352.25003472 -.00054747  00000+0 -35508-3 0  9991",
        "tle_line2": "2 66874  43.0007  88.3994 0001827 262.4329  77.6096 15.75071001  2312"
      },
      "geometry": {
        "type": "Point",
        "coordinates": [
          129.10084373284798,
          33.20999537505125
        ]
      }
    },
    {
      "type": "Feature",
      "properties": {
        "norad_id": 66875,
        "name": "STARLINK-36053",
        "group": "last-30-days",
        "lat": 35.883249809893265,
        "lon": 135.38260591572615,
        "alt_km": 339.477375916862,
        "timestamp": "2025-12-18T21:31:49.700439+00:00",
        "meta_object_name": "STARLINK-36053",
        "meta_object_id": "2025-281AD",
        "meta_epoch": "2025-12-18T06:00:02.999808",
        "meta_mean_motion": 15.75022152,
        "meta_eccentricity": 0.00014946,
        "meta_inclination": 43.001,
        "meta_ra_of_asc_node": 88.3838,
        "meta_arg_of_pericenter": 261.688,
        "meta_mean_anomaly": 84.1173,
        "meta_ephemeris_type": 0,
        "meta_classification_type": "U",
        "meta_norad_cat_id": 66875,
        "meta_element_set_no": 999,
        "meta_rev_at_epoch": 231,
        "meta_bstar": 0.00042840342,
        "meta_mean_motion_dot": 0.00065794,
        "meta_mean_motion_ddot": 0,
        "tle_line1": "1 66875U 25281AD  25352.25003472  .00065794  00000+0  42840-3 0  9991",
        "tle_line2": "2 66875  43.0010  88.3838 0001494 261.6880  84.1173 15.75022152  2319"
      },
      "geometry": {
        "type": "Point",
        "coordinates": [
          135.38260591572615,
          35.883249809893265
        ]
      }
    },
    {
      "type": "Feature",
      "properties": {
        "norad_id": 66876,
        "name": "STARLINK-35702",
        "group": "last-30-days",
        "lat": 34.17267358319432,
        "lon": 131.2319797934702,
        "alt_km": 339.8516768876434,
        "timestamp": "2025-12-18T21:31:49.700452+00:00",
        "meta_object_name": "STARLINK-35702",
        "meta_object_id": "2025-281AE",
        "meta_epoch": "2025-12-18T06:00:02.999808",
        "meta_mean_motion": 15.75038888,
        "meta_eccentricity": 0.00022972,
        "meta_inclination": 43.0007,
        "meta_ra_of_asc_node": 88.3943,
        "meta_arg_of_pericenter": 263.7255,
        "meta_mean_anomaly": 78.1261,
        "meta_ephemeris_type": 0,
        "meta_classification_type": "U",
        "meta_norad_cat_id": 66876,
        "meta_element_set_no": 999,
        "meta_rev_at_epoch": 231,
        "meta_bstar": 0.00086147546,
        "meta_mean_motion_dot": 0.00133979,
        "meta_mean_motion_ddot": 0,
        "tle_line1": "1 66876U 25281AE  25352.25003472  .00133979  00000+0  86148-3 0  9992",
        "tle_line2": "2 66876  43.0007  88.3943 0002297 263.7255  78.1261 15.75038888  2318"
      },
      "geometry": {
        "type": "Point",
        "coordinates": [
          131.2319797934702,
          34.17267358319432
        ]
      }
    },
    {
      "type": "Feature",
      "properties": {
        "norad_id": 66877,
        "name": "ZQ-3 R/B",
        "group": "last-30-days",
        "lat": 45.93609726469317,
        "lon": 76.15382066181783,
        "alt_km": 1153.3452693611716,
        "timestamp": "2025-12-18T21:31:49.700462+00:00",
        "meta_object_name": "ZQ-3 R/B",
        "meta_object_id": "2025-282A",
        "meta_epoch": "2025-12-18T06:33:11.576160",
        "meta_mean_motion": 14.7082804,
        "meta_eccentricity": 0.07320142,
        "meta_inclination": 56.9499,
        "meta_ra_of_asc_node": 36.3088,
        "meta_arg_of_pericenter": 229.6301,
        "meta_mean_anomaly": 123.8586,
        "meta_ephemeris_type": 0,
        "meta_classification_type": "U",
        "meta_norad_cat_id": 66877,
        "meta_element_set_no": 999,
        "meta_rev_at_epoch": 220,
        "meta_bstar": 0.00019137253,
        "meta_mean_motion_dot": 0.01026202,
        "meta_mean_motion_ddot": 7.67828e-06,
        "tle_line1": "1 66877U 25282A   25352.27305065  .01026202  76783-5  19137-3 0  9991",
        "tle_line2": "2 66877  56.9499  36.3088 0732014 229.6301 123.8586 14.70828040  2207"
      },
      "geometry": {
        "type": "Point",
        "coordinates": [
          76.15382066181783,
          45.93609726469317
        ]
      }
    }
  ]
}